NORAD_CAT_ID,OBJECT_NAME,OBJECT_TYPE,EPOCH,MEAN_MOTION,ECCENTRICITY,INCLINATION,RA_OF_ASC_NODE,ARG_OF_PERICENTER,MEAN_ANOMALY,BSTAR,MEAN_MOTION_DOT,MEAN_MOTION_DDOT,TLE_LINE0,TLE_LINE1,TLE_LINE2,SEMIMAJOR_AXIS,PERIOD,APOGEE,PERIGEE,DECAYED
55295.0,STARLINK-5293,PAYLOAD,2023-02-24 05:51:56,15.69939762,0.0003046,70.0003,328.5231,276.031,84.0538,0.00030194,0.00036272,0.0,0 STARLINK-5293,1 55295U 23010AC  23055.24440249  .00036272  00000-0  30194-3 0  9996,2 55295  70.0003 328.5231 0003046 276.0310  84.0538 15.69939762  6117,6737.206,91.723,361.123,357.019,0.0
55295.0,STARLINK-5293,PAYLOAD,2023-02-24 18:05:57,15.69921107,0.0003205,69.9998,327.09,268.9455,91.1374,0.00036989,0.00044493,0.0,0 STARLINK-5293,1 55295U 23010AC  23055.75414064  .00044493  00000-0  36989-3 0  9990,2 55295  69.9998 327.0900 0003205 268.9455  91.1374 15.69921107  6190,6737.26,91.724,361.284,356.965,0.0
55295.0,STARLINK-5293,PAYLOAD,2023-02-24 19:37:42,15.69906346,0.0003748,69.9996,326.9111,275.1066,84.9702,-2.2004e-05,-2.856e-05,0.0,0 STARLINK-5293,1 55295U 23010AC  23055.81785723 -.00002856  00000-0 -22004-4 0  9993,2 55295  69.9996 326.9111 0003748 275.1066  84.9702 15.69906346  6520,6737.302,91.725,361.692,356.642,0.0
55295.0,STARLINK-5293,PAYLOAD,2023-02-25 00:12:58,15.69914394,0.0003486,69.9997,326.374,268.343,91.7366,0.00012331,0.00014634,0.0,0 STARLINK-5293,1 55295U 23010AC  23056.00900934  .00014634  00000-0  12331-3 0  9994,2 55295  69.9997 326.3740 0003486 268.3430  91.7366 15.69914394  6233,6737.279,91.725,361.493,356.795,0.0
55295.0,STARLINK-5293,PAYLOAD,2023-02-25 03:16:28,15.69922729,0.0003113,69.9998,326.0158,266.1088,93.9752,0.00024766,0.00029669,0.0,0 STARLINK-5293,1 55295U 23010AC  23056.13644369  .00029669  00000-0  24766-3 0  9994,2 55295  69.9998 326.0158 0003113 266.1088  93.9752 15.69922729  6252,6737.255,91.724,361.217,357.023,0.0
55295.0,STARLINK-5293,PAYLOAD,2023-02-25 18:33:59,15.6994914,0.000286,70.0003,324.2246,264.2596,95.8273,0.00020403,0.00024415,0.0,0 STARLINK-5293,1 55295U 23010AC  23056.77360779  .00024415  00000-0  20403-3 0  9992,2 55295  70.0003 324.2246 0002860 264.2596  95.8273 15.69949140  6357,6737.18,91.723,360.971,357.118,0.0
55295.0,STARLINK-5293,PAYLOAD,2023-02-25 20:05:44,15.69943625,0.0003082,70.0003,324.0447,266.6344,93.4499,0.00014625,0.00017422,0.0,0 STARLINK-5293,1 55295U 23010AC  23056.83732421  .00017422  00000-0  14625-3 0  9995,2 55295  70.0003 324.0447 0003082 266.6344  93.4499 15.69943625  6684,6737.195,91.723,361.137,356.984,0.0
55295.0,STARLINK-5293,PAYLOAD,2023-02-26 03:44:30,15.69944564,0.0003033,70.0004,323.1488,248.3591,111.7282,9.6263e-05,0.00011387,0.0,0 STARLINK-5293,1 55295U 23010AC  23057.15590324  .00011387  00000-0  96263-4 0  9998,2 55295  70.0004 323.1488 0003033 248.3591 111.7282 15.69944564  6415,6737.193,91.723,361.101,357.014,0.0
55295.0,STARLINK-5293,PAYLOAD,2023-02-26 05:16:15,15.69949724,0.0002846,70.0005,322.9693,261.1797,98.9077,0.00011947,0.00014191,0.0,0 STARLINK-5293,1 55295U 23010AC  23057.21961948  .00014191  00000-0  11947-3 0  9990,2 55295  70.0005 322.9693 0002846 261.1797  98.9077 15.69949724  6740,6737.178,91.723,360.96,357.125,0.0
55295.0,STARLINK-5293,PAYLOAD,2023-02-26 17:30:16,15.699296,0.0003019,69.999,321.5366,262.1238,97.9615,2.633e-05,2.955e-05,0.0,0 STARLINK-5293,1 55295U 23010AC  23057.72935570  .00002955  00000-0  26330-4 0  9996,2 55295  69.9990 321.5366 0003019 262.1238  97.9615 15.69929600  6508,6737.235,91.724,361.134,357.066,0.0
55295.0,STARLINK-5293,PAYLOAD,2023-02-26 23:37:16,15.69948577,0.0002603,69.9993,320.8205,261.8139,98.2761,0.00012223,0.00014523,0.0,0 STARLINK-5293,1 55295U 23010AC  23057.98421870  .00014523  00000-0  12223-3 0  9996,2 55295  69.9993 320.8205 0002603 261.8139  98.2761 15.69948577  6543,6737.181,91.723,360.8,357.292,0.0
55295.0,STARLINK-5293,PAYLOAD,2023-02-27 02:40:46,15.699543,0.0003643,70.0,320.4615,265.1229,94.9551,0.00016782,0.0002004,0.0,0 STARLINK-5293,1 55295U 23010AC  23058.11164962  .00020040  00000-0  16782-3 0  9993,2 55295  70.0000 320.4615 0003643 265.1229  94.9551 15.69954300  6886,6737.165,91.722,361.484,356.575,0.0
55295.0,STARLINK-5293,PAYLOAD,2023-02-27 17:58:17,15.6995804,0.0003814,70.0012,318.6699,254.4785,105.5989,0.00023446,0.00028115,0.0,0 STARLINK-5293,1 55295U 23010AC  23058.74881231  .00028115  00000-0  23446-3 0  9993,2 55295  70.0012 318.6699 0003814 254.4785 105.5989 15.69958040  6663,6737.154,91.722,361.589,356.449,0.0
55295.0,STARLINK-5293,PAYLOAD,2023-02-27 21:01:47,15.69938875,0.0003918,70.0001,318.3104,277.1093,82.9657,9.3029e-05,0.00010996,0.0,0 STARLINK-5293,1 55295U 23010AC  23058.87624843  .00010996  00000-0  93029-4 0  9994,2 55295  70.0001 318.3104 0003918 277.1093  82.9657 15.69938875  7001,6737.209,91.723,361.714,356.434,0.0
55295.0,STARLINK-5293,PAYLOAD,2023-02-28 04:40:33,15.69913303,0.0003512,70.0005,317.4142,282.5773,77.503,-5.9997e-05,-7.418e-05,0.0,0 STARLINK-5293,1 55295U 23010AC  23059.19483671 -.00007418  00000-0 -59997-4 0  9995,2 55295  70.0005 317.4142 0003512 282.5773  77.5030 15.69913303  6735,6737.282,91.725,361.513,356.781,0.0
55295.0,STARLINK-5293,PAYLOAD,2023-02-28 23:01:36,15.69895689,0.000409,70.0015,315.2661,272.051,88.0218,1.3519e-05,1.411e-05,0.0,0 STARLINK-5293,1 55295U 23010AC  23059.95945276  .00001411  00000-0  13519-4 0  9998,2 55295  70.0015 315.2661 0004090 272.0510  88.0218 15.69895689  7173,6737.332,91.726,361.953,356.442,0.0
55295.0,STARLINK-5293,PAYLOAD,2023-03-01 03:36:52,15.69913394,0.0003199,70.0019,314.7282,273.7632,86.3198,0.00013165,0.00015639,0.0,0 STARLINK-5293,1 55295U 23010AC  23060.15060416  .00015639  00000-0  13165-3 0  9999,2 55295  70.0019 314.7282 0003199 273.7632  86.3198 15.69913394  6881,6737.282,91.725,361.302,356.992,0.0
55295.0,STARLINK-5293,PAYLOAD,2023-03-01 20:26:07,15.69952283,0.0003769,70.0014,312.7574,272.351,87.7254,0.00016485,0.0001968,0.0,0 STARLINK-5293,1 55295U 23010AC  23060.85147891  .00019680  00000-0  16485-3 0  9997,2 55295  70.0014 312.7574 0003769 272.3510  87.7254 15.69952283  7318,6737.171,91.723,361.575,356.496,0.0
55295.0,STARLINK-5293,PAYLOAD,2023-03-02 19:22:24,15.69926872,0.0004281,70.0008,310.0716,262.991,97.0799,4.435e-05,5.124e-05,0.0,0 STARLINK-5293,1 55295U 23010AC  23061.80722731  .00005124  00000-0  44350-4 0  9996,2 55295  70.0008 310.0716 0004281 262.9910  97.0799 15.69926872  7468,6737.243,91.724,361.992,356.224,0.0
55295.0,STARLINK-5293,PAYLOAD,2023-03-03 14:00:01,15.67943248,0.0003527,70.0004,307.894,268.685,153.3784,-0.010347,-0.01033304,0.0,0 STARLINK-5293,1 55295U 23010AC  23062.58334491 -.01033304  00000-0 -10347-1 0  9994,2 55295  70.0004 307.8940 0003527 268.6850 153.3784 15.67943248  7267,6742.924,91.84,367.167,362.411,0.0
55295.0,STARLINK-5293,PAYLOAD,2023-03-03 22:00:00,15.6716622,0.000337,70.0004,306.9603,274.8376,227.7437,-0.010609,-0.01026939,0.0,0 STARLINK-5293,1 55295U 23010AC  23062.91667824 -.01026939  00000-0 -10609-1 0  9997,2 55295  70.0004 306.9603 0003370 274.8376 227.7437 15.67166220  1308,6745.153,91.886,369.291,364.745,0.0
55295.0,STARLINK-5293,PAYLOAD,2023-03-04 10:00:01,15.66014466,0.0003456,69.9999,305.5612,272.1146,169.5756,-0.010835,-0.01003473,0.0,0 STARLINK-5293,1 55295U 23010AC  23063.41668981 -.01003473  00000-0 -10835-1 0  9997,2 55295  69.9999 305.5612 0003456 272.1146 169.5756 15.66014466  7399,6748.46,91.953,372.657,367.992,0.0
55295.0,STARLINK-5293,PAYLOAD,2023-03-04 14:00:01,15.65669203,0.0003584,69.9997,305.0956,266.8539,33.9795,-0.011511,-0.01046639,0.0,0 STARLINK-5293,1 55295U 23010AC  23063.58334491 -.01046639  00000-0 -11511-1 0  9994,2 55295  69.9997 305.0956 0003584 266.8539  33.9795 15.65669203  1307,6749.452,91.973,373.736,368.898,0.0
55295.0,STARLINK-5293,PAYLOAD,2023-03-04 22:00:00,15.64890231,0.0003592,70.0,304.1647,272.5778,106.034,-0.011728,-0.01034861,0.0,0 STARLINK-5293,1 55295U 23010AC  23063.91667824 -.01034861  00000-0 -11728-1 0  9994,2 55295  70.0000 304.1647 0003592 272.5778 106.0340 15.64890231  1304,6751.691,92.019,375.982,371.131,0.0
55295.0,STARLINK-5293,PAYLOAD,2023-03-05 00:00:00,15.64698272,0.0003388,70.0,303.9321,276.281,211.6269,-0.011674,-0.01023375,0.0,0 STARLINK-5293,1 55295U 23010AC  23064.00001157 -.01023375  00000-0 -11674-1 0  9994,2 55295  70.0000 303.9321 0003388 276.2810 211.6269 15.64698272  7491,6752.244,92.031,376.396,371.821,0.0
55295.0,STARLINK-5293,PAYLOAD,2023-03-05 14:00:01,15.63385149,0.0003393,69.9997,302.3068,268.061,263.3324,-0.012561,-0.0104303,0.0,0 STARLINK-5293,1 55295U 23010AC  23064.58334491 -.01043030  00000-0 -12561-1 0  9993,2 55295  69.9997 302.3068 0003393 268.0610 263.3324 15.63385149  1302,6756.024,92.108,380.181,375.597,0.0
55295.0,STARLINK-5293,PAYLOAD,2023-03-05 16:00:00,15.63221324,0.0003529,69.9999,302.0749,265.92,14.3085,-0.013208,-0.01102095,0.0,0 STARLINK-5293,1 55295U 23010AC  23064.66667824 -.01102095  00000-0 -13208-1 0  9997,2 55295  69.9999 302.0749 0003529 265.9200  14.3085 15.63221324  7598,6756.496,92.117,380.745,375.977,0.0
55295.0,STARLINK-5293,PAYLOAD,2023-03-05 22:00:00,15.62605437,0.0003546,69.9994,301.3795,270.9242,335.5121,-0.012846,-0.01035385,0.0,0 STARLINK-5293,1 55295U 23010AC  23064.91667824 -.01035385  00000-0 -12846-1 0  9999,2 55295  69.9994 301.3795 0003546 270.9242 335.5121 15.62605437  1309,6758.271,92.154,382.533,377.74,0.0
55295.0,STARLINK-5293,PAYLOAD,2023-03-06 22:00:00,15.60322647,0.0003638,69.9989,298.6026,275.3746,190.6677,-0.01402,-0.01050003,0.0,0 STARLINK-5293,1 55295U 23010AC  23065.91667824 -.01050003  00000-0 -14020-1 0  9990,2 55295  69.9989 298.6026 0003638 275.3746 190.6677 15.60322647  7790,6764.861,92.289,389.187,384.265,0.0
55295.0,STARLINK-5293,PAYLOAD,2023-03-07 14:00:01,15.58821245,0.0003459,69.9986,296.7572,265.7453,342.1241,-0.015027,-0.01061485,0.0,0 STARLINK-5293,1 55295U 23010AC  23066.58334491 -.01061485  00000-0 -15027-1 0  9999,2 55295  69.9986 296.7572 0003459 265.7453 342.1241 15.58821245  7898,6769.204,92.377,393.411,388.728,0.0
